{
  "type": "FeatureCollection",
  "features": [
    {
      "type": "Feature",
      "properties": {
        "norad_id": 30199,
        "name": "FENGYUN 1C DEB",
        "group": "fengyun-1c-debris",
        "lat": 10.772887127512702,
        "lon": -177.7681521710152,
        "alt_km": 820.2148472227891,
        "timestamp": "2025-12-02T15:49:07.464248+00:00",
        "meta_object_name": "FENGYUN 1C DEB",
        "meta_object_id": "1999-025VG",
        "meta_epoch": "2025-12-02T00:17:13.651584",
        "meta_mean_motion": 14.3840816,
        "meta_eccentricity": 0.00781868,
        "meta_inclination": 98.3864,
        "meta_ra_of_asc_node": 359.9913,
        "meta_arg_of_pericenter": 341.1463,
        "meta_mean_anomaly": 78.8157,
        "meta_ephemeris_type": 0,
        "meta_classification_type": "U",
        "meta_norad_cat_id": 30199,
        "meta_element_set_no": 999,
        "meta_rev_at_epoch": 98256,
        "meta_bstar": 0.001132218,
        "meta_mean_motion_dot": 3.535e-05,
        "meta_mean_motion_ddot": 0,
        "tle_line1": "1 30199U 99025VG  25336.01196356  .00003535  00000+0  11322-2 0  9993",
        "tle_line2": "2 30199  98.3864 359.9913 0078186 341.1463  78.8157 14.38408160982564"
      },
      "geometry": {
        "type": "Point",
        "coordinates": [
          -177.7681521710152,
          10.772887127512702
        ]
      }
    },
    {
      "type": "Feature",
      "properties": {
        "norad_id": 30200,
        "name": "FENGYUN 1C DEB",
        "group": "fengyun-1c-debris",
        "lat": 6.840705079905324,
        "lon": 169.9678608596255,
        "alt_km": 872.9604635469514,
        "timestamp": "2025-12-02T15:49:07.464259+00:00",
        "meta_object_name": "FENGYUN 1C DEB",
        "meta_object_id": "1999-025VH",
        "meta_epoch": "2025-12-02T00:35:24.093888",
        "meta_mean_motion": 14.2226339,
        "meta_eccentricity": 0.0147394,
        "meta_inclination": 99.1134,
        "meta_ra_of_asc_node": 170.4154,
        "meta_arg_of_pericenter": 129.7337,
        "meta_mean_anomaly": 231.6937,
        "meta_ephemeris_type": 0,
        "meta_classification_type": "U",
        "meta_norad_cat_id": 30200,
        "meta_element_set_no": 999,
        "meta_rev_at_epoch": 97830,
        "meta_bstar": 0.00018407345,
        "meta_mean_motion_dot": 4.1e-06,
        "meta_mean_motion_ddot": 0,
        "tle_line1": "1 30200U 99025VH  25336.02458442  .00000410  00000+0  18407-3 0  9995",
        "tle_line2": "2 30200  99.1134 170.4154 0147394 129.7337 231.6937 14.22263390978306"
      },
      "geometry": {
        "type": "Point",
        "coordinates": [
          169.9678608596255,
          6.840705079905324
        ]
      }
    },
    {
      "type": "Feature",
      "properties": {
        "norad_id": 30201,
        "name": "FENGYUN 1C DEB",
        "group": "fengyun-1c-debris",
        "lat": -72.10384801086337,
        "lon": -100.6676558889486,
        "alt_km": 821.7582583979192,
        "timestamp": "2025-12-02T15:49:07.464271+00:00",
        "meta_object_name": "FENGYUN 1C DEB",
        "meta_object_id": "1999-025VJ",
        "meta_epoch": "2025-12-01T21:44:50.038080",
        "meta_mean_motion": 14.22905543,
        "meta_eccentricity": 0.00289109,
        "meta_inclination": 99.4006,
        "meta_ra_of_asc_node": 109.395,
        "meta_arg_of_pericenter": 344.1334,
        "meta_mean_anomaly": 15.8933,
        "meta_ephemeris_type": 0,
        "meta_classification_type": "U",
        "meta_norad_cat_id": 30201,
        "meta_element_set_no": 999,
        "meta_rev_at_epoch": 97673,
        "meta_bstar": 0.00050741245,
        "meta_mean_motion_dot": 1.096e-05,
        "meta_mean_motion_ddot": 0,
        "tle_line1": "1 30201U 99025VJ  25335.90613470  .00001096  00000+0  50741-3 0  9994",
        "tle_line2": "2 30201  99.4006 109.3950 0028910 344.1334  15.8933 14.22905543976731"
      },
      "geometry": {
        "type": "Point",
        "coordinates": [
          -100.6676558889486,
          -72.10384801086337
        ]
      }
    },
    {
      "type": "Feature",
      "properties": {
        "norad_id": 30202,
        "name": "FENGYUN 1C DEB",
        "group": "fengyun-1c-debris",
        "lat": -71.14904052363838,
        "lon": -132.7927844526064,
        "alt_km": 753.162768324406,
        "timestamp": "2025-12-02T15:49:07.464281+00:00",
        "meta_object_name": "FENGYUN 1C DEB",
        "meta_object_id": "1999-025VK",
        "meta_epoch": "2025-12-02T06:23:24.389664",
        "meta_mean_motion": 14.52050153,
        "meta_eccentricity": 0.00397321,
        "meta_inclination": 98.6411,
        "meta_ra_of_asc_node": 73.2522,
        "meta_arg_of_pericenter": 91.3212,
        "meta_mean_anomaly": 269.2535,
        "meta_ephemeris_type": 0,
        "meta_classification_type": "U",
        "meta_norad_cat_id": 30202,
        "meta_element_set_no": 999,
        "meta_rev_at_epoch": 98137,
        "meta_bstar": 0.0027811403,
        "meta_mean_motion_dot": 0.00011331,
        "meta_mean_motion_ddot": 0,
        "tle_line1": "1 30202U 99025VK  25336.26625451  .00011331  00000+0  27811-2 0  9991",
        "tle_line2": "2 30202  98.6411  73.2522 0039732  91.3212 269.2535 14.52050153981377"
      },
      "geometry": {
        "type": "Point",
        "coordinates": [
          -132.7927844526064,
          -71.14904052363838
        ]
      }
    },
    {
      "type": "Feature",
      "properties": {
        "norad_id": 30205,
        "name": "FENGYUN 1C DEB",
        "group": "fengyun-1c-debris",
        "lat": 67.39627749175789,
        "lon": -69.28193841983281,
        "alt_km": 937.6040237988236,
        "timestamp": "2025-12-02T15:49:07.464292+00:00",
        "meta_object_name": "FENGYUN 1C DEB",
        "meta_object_id": "1999-025VN",
        "meta_epoch": "2025-12-02T06:53:49.173216",
        "meta_mean_motion": 13.88026061,
        "meta_eccentricity": 0.01206165,
        "meta_inclination": 98.9968,
        "meta_ra_of_asc_node": 87.9937,
        "meta_arg_of_pericenter": 208.1071,
        "meta_mean_anomaly": 207.515,
        "meta_ephemeris_type": 0,
        "meta_classification_type": "U",
        "meta_norad_cat_id": 30205,
        "meta_element_set_no": 999,
        "meta_rev_at_epoch": 95493,
        "meta_bstar": 0.00047588179,
        "meta_mean_motion_dot": 5.58e-06,
        "meta_mean_motion_ddot": 0,
        "tle_line1": "1 30205U 99025VN  25336.28737469  .00000558  00000+0  47588-3 0  9992",
        "tle_line2": "2 30205  98.9968  87.9937 0120616 208.1071 207.5150 13.88026061954934"
      },
      "geometry": {
        "type": "Point",
        "coordinates": [
          -69.28193841983281,
          67.39627749175789
        ]
      }
    },
    {
      "type": "Feature",
      "properties": {
        "norad_id": 30206,
        "name": "FENGYUN 1C DEB",
        "group": "fengyun-1c-debris",
        "lat": -14.095606977102843,
        "lon": -21.75167617522248,
        "alt_km": 715.5519495461122,
        "timestamp": "2025-12-02T15:49:07.464303+00:00",
        "meta_object_name": "FENGYUN 1C DEB",
        "meta_object_id": "1999-025VP",
        "meta_epoch": "2025-12-01T23:18:43.204032",
        "meta_mean_motion": 14.49085664,
        "meta_eccentricity": 0.01465839,
        "meta_inclination": 98.2314,
        "meta_ra_of_asc_node": 335.4941,
        "meta_arg_of_pericenter": 69.0353,
        "meta_mean_anomaly": 292.6455,
        "meta_ephemeris_type": 0,
        "meta_classification_type": "U",
        "meta_norad_cat_id": 30206,
        "meta_element_set_no": 999,
        "meta_rev_at_epoch": 99245,
        "meta_bstar": 0.00046804217,
        "meta_mean_motion_dot": 1.99e-05,
        "meta_mean_motion_ddot": 0,
        "tle_line1": "1 30206U 99025VP  25335.97133338  .00001990  00000+0  46804-3 0  9994",
        "tle_line2": "2 30206  98.2314 335.4941 0146583  69.0353 292.6455 14.49085664992451"
      },
      "geometry": {
        "type": "Point",
        "coordinates": [
          -21.75167617522248,
          -14.095606977102843
        ]
      }
    },
    {
      "type": "Feature",
      "properties": {
        "norad_id": 30207,
        "name": "FENGYUN 1C DEB",
        "group": "fengyun-1c-debris",
        "lat": -25.522821893950887,
        "lon": 92.43519230652986,
        "alt_km": 1149.954076895312,
        "timestamp": "2025-12-02T15:49:07.464314+00:00",
        "meta_object_name": "FENGYUN 1C DEB",
        "meta_object_id": "1999-025VQ",
        "meta_epoch": "2025-12-02T07:33:44.369568",
        "meta_mean_motion": 13.79122812,
        "meta_eccentricity": 0.02602097,
        "meta_inclination": 98.574,
        "meta_ra_of_asc_node": 87.9927,
        "meta_arg_of_pericenter": 176.5123,
        "meta_mean_anomaly": 249.5971,
        "meta_ephemeris_type": 0,
        "meta_classification_type": "U",
        "meta_norad_cat_id": 30207,
        "meta_element_set_no": 999,
        "meta_rev_at_epoch": 94919,
        "meta_bstar": 0.00041607154,
        "meta_mean_motion_dot": 5.11e-06,
        "meta_mean_motion_ddot": 0,
        "tle_line1": "1 30207U 99025VQ  25336.31509687  .00000511  00000+0  41607-3 0  9992",
        "tle_line2": "2 30207  98.5740  87.9927 0260209 176.5123 249.5971 13.79122812949198"
      },
      "geometry": {
        "type": "Point",
        "coordinates": [
          92.43519230652986,
          -25.522821893950887
        ]
      }
    }
  ]
}